start=new Date('2022-08-13T00:00:00.000Z').valueOf();
sats=[{"CLASSIFICATION_TYPE":"U","SITE":"AFETR","ECCENTRICITY":"0.00016460","RCS_SIZE":"LARGE","EPHEMERIS_TYPE":"0","EPOCH":"2022-08-12T10:16:44.795136","MEAN_MOTION":"15.08842894","NORAD_CAT_ID":"50804","REV_AT_EPOCH":"3349","RA_OF_ASC_NODE":"258.6681","COUNTRY_CODE":"US","TLE_LINE1":"1 50804U 22001B   22224.42829624  .00001994  00000-0  14336-3 0  9994","ELEMENT_SET_NO":"999","REF_FRAME":"TEME","TLE_LINE2":"2 50804  53.2178 258.6681 0001646  51.8682 308.2458 15.08842894 33496","GP_ID":"210079018","LAUNCH_DATE":"2022-01-06","MEAN_MOTION_DOT":"0.00001994","CENTER_NAME":"EARTH","SEMIMAJOR_AXIS":"6917.872","PERIOD":"95.437","MEAN_ELEMENT_THEORY":"SGP4","ARG_OF_PERICENTER":"51.8682","OBJECT_TYPE":"PAYLOAD","TIME_SYSTEM":"UTC","BSTAR":"0.00014336000000","FILE":"3535350","OBJECT_NAME":"STARLINK-3323","MEAN_ANOMALY":"308.2458","PERIAPSIS":"538.598","MEAN_MOTION_DDOT":"0.0000000000000","INCLINATION":"53.2178","OBJECT_ID":"2022-001B","DECAY_DATE":null,"APOAPSIS":"540.875"},{"PERIAPSIS":"538.758","MEAN_MOTION_DDOT":"0.0000000000000","DECAY_DATE":null,"OBJECT_ID":"2022-001C","APOAPSIS":"540.804","INCLINATION":"53.2171","BSTAR":"0.00014100000000","TIME_SYSTEM":"UTC","OBJECT_TYPE":"PAYLOAD","MEAN_ELEMENT_THEORY":"SGP4","ARG_OF_PERICENTER":"56.5276","OBJECT_NAME":"STARLINK-3333","MEAN_ANOMALY":"303.5858","FILE":"3535350","MEAN_MOTION_DOT":"0.00001956","LAUNCH_DATE":"2022-01-06","TLE_LINE2":"2 50805  53.2171 258.6831 0001479  56.5276 303.5858 15.08828242 33495","GP_ID":"210079268","ELEMENT_SET_NO":"999","TLE_LINE1":"1 50805U 22001C   22224.42463697  .00001956  00000-0  14100-3 0  9996","REF_FRAME":"TEME","PERIOD":"95.438","CENTER_NAME":"EARTH","SEMIMAJOR_AXIS":"6917.916","CLASSIFICATION_TYPE":"U","SITE":"AFETR","ECCENTRICITY":"0.00014790","COUNTRY_CODE":"US","REV_AT_EPOCH":"3349","RA_OF_ASC_NODE":"258.6831","RCS_SIZE":"LARGE","EPHEMERIS_TYPE":"0","EPOCH":"2022-08-12T10:11:28.634208","NORAD_CAT_ID":"50805","MEAN_MOTION":"15.08828242"},{"SEMIMAJOR_AXIS":"6917.876","CENTER_NAME":"EARTH","PERIOD":"95.437","REF_FRAME":"TEME","TLE_LINE1":"1 50806U 22001D   22224.42093587  .00002309  00000-0  16309-3 0  9990","ELEMENT_SET_NO":"999","TLE_LINE2":"2 50806  53.2155 258.6931 0001797  55.0291 305.0870 15.08841329 33495","GP_ID":"210077517","MEAN_MOTION_DOT":"0.00002309","LAUNCH_DATE":"2022-01-06","MEAN_MOTION":"15.08841329","NORAD_CAT_ID":"50806","EPOCH":"2022-08-12T10:06:08.859168","RCS_SIZE":"LARGE","EPHEMERIS_TYPE":"0","RA_OF_ASC_NODE":"258.6931","REV_AT_EPOCH":"3349","COUNTRY_CODE":"US","ECCENTRICITY":"0.00017970","CLASSIFICATION_TYPE":"U","SITE":"AFETR","INCLINATION":"53.2155","APOAPSIS":"540.984","OBJECT_ID":"2022-001D","DECAY_DATE":null,"MEAN_MOTION_DDOT":"0.0000000000000","PERIAPSIS":"538.498","FILE":"3535350","MEAN_ANOMALY":"305.0870","OBJECT_NAME":"STARLINK-3335","MEAN_ELEMENT_THEORY":"SGP4","ARG_OF_PERICENTER":"55.0291","OBJECT_TYPE":"PAYLOAD","TIME_SYSTEM":"UTC","BSTAR":"0.00016309000000"},{"NORAD_CAT_ID":"50807","MEAN_MOTION":"15.08851385","RCS_SIZE":"LARGE","EPHEMERIS_TYPE":"0","EPOCH":"2022-08-12T19:17:15.921600","COUNTRY_CODE":"US","REV_AT_EPOCH":"3355","RA_OF_ASC_NODE":"256.9972","ECCENTRICITY":"0.00015330","SITE":"AFETR","CLASSIFICATION_TYPE":"U","SEMIMAJOR_AXIS":"6917.846","CENTER_NAME":"EARTH","PERIOD":"95.437","REF_FRAME":"TEME","ELEMENT_SET_NO":"999","TLE_LINE1":"1 50807U 22001E   22224.80365650  .00000578  00000-0  54364-4 0  9996","LAUNCH_DATE":"2022-01-06","MEAN_MOTION_DOT":"0.00000578","GP_ID":"210106974","TLE_LINE2":"2 50807  53.2170 256.9972 0001533  62.6156 297.4992 15.08851385 33550","FILE":"3535519","MEAN_ANOMALY":"297.4992","OBJECT_NAME":"STARLINK-3353","OBJECT_TYPE":"PAYLOAD","ARG_OF_PERICENTER":"62.6156","MEAN_ELEMENT_THEORY":"SGP4","BSTAR":"0.00005436400000","TIME_SYSTEM":"UTC","INCLINATION":"53.2170","APOAPSIS":"540.771","DECAY_DATE":null,"OBJECT_ID":"2022-001E","MEAN_MOTION_DDOT":"0.0000000000000","PERIAPSIS":"538.650"},{"LAUNCH_DATE":"2022-01-06","MEAN_MOTION_DOT":"0.00000062","TLE_LINE2":"2 50808  53.2163 258.7335 0001595  47.1313 312.9813 15.08825923 33494","GP_ID":"210078519","ELEMENT_SET_NO":"999","TLE_LINE1":"1 50808U 22001F   22224.41359778  .00000062  00000-0  21971-4 0  9994","REF_FRAME":"TEME","PERIOD":"95.438","CENTER_NAME":"EARTH","SEMIMAJOR_AXIS":"6917.923","CLASSIFICATION_TYPE":"U","SITE":"AFETR","ECCENTRICITY":"0.00015950","COUNTRY_CODE":"US","RA_OF_ASC_NODE":"258.7335","REV_AT_EPOCH":"3349","RCS_SIZE":"LARGE","EPOCH":"2022-08-12T09:55:34.848192","EPHEMERIS_TYPE":"0","NORAD_CAT_ID":"50808","MEAN_MOTION":"15.08825923","PERIAPSIS":"538.685","MEAN_MOTION_DDOT":"0.0000000000000","DECAY_DATE":null,"OBJECT_ID":"2022-001F","APOAPSIS":"540.892","INCLINATION":"53.2163","BSTAR":"0.00002197100000","TIME_SYSTEM":"UTC","OBJECT_TYPE":"PAYLOAD","ARG_OF_PERICENTER":"47.1313","MEAN_ELEMENT_THEORY":"SGP4","OBJECT_NAME":"STARLINK-3355","MEAN_ANOMALY":"312.9813","FILE":"3535350"},{"CENTER_NAME":"EARTH","SEMIMAJOR_AXIS":"6917.894","PERIOD":"95.438","TLE_LINE1":"1 50809U 22001G   22224.48350513  .00001713  00000-0  12574-3 0  9992","ELEMENT_SET_NO":"999","REF_FRAME":"TEME","TLE_LINE2":"2 50809  53.2165 258.4210 0001715  49.0622 311.0519 15.08835670 33509","GP_ID":"210078769","LAUNCH_DATE":"2022-01-06","MEAN_MOTION_DOT":"0.00001713","EPHEMERIS_TYPE":"0","RCS_SIZE":"LARGE","EPOCH":"2022-08-12T11:36:14.843232","MEAN_MOTION":"15.08835670","NORAD_CAT_ID":"50809","REV_AT_EPOCH":"3350","RA_OF_ASC_NODE":"258.4210","COUNTRY_CODE":"US","SITE":"AFETR","CLASSIFICATION_TYPE":"U","ECCENTRICITY":"0.00017150","INCLINATION":"53.2165","OBJECT_ID":"2022-001G","DECAY_DATE":null,"APOAPSIS":"540.945","PERIAPSIS":"538.572","MEAN_MOTION_DDOT":"0.0000000000000","FILE":"3535350","OBJECT_NAME":"STARLINK-3232","MEAN_ANOMALY":"311.0519","ARG_OF_PERICENTER":"49.0622","MEAN_ELEMENT_THEORY":"SGP4","OBJECT_TYPE":"PAYLOAD","TIME_SYSTEM":"UTC","BSTAR":"0.00012574000000"},{"MEAN_MOTION_DOT":"0.00002182","LAUNCH_DATE":"2022-01-06","TLE_LINE2":"2 50810  53.2169 256.9821 0001756  48.5774 311.5368 15.08842340 33557","GP_ID":"210107225","ELEMENT_SET_NO":"999","TLE_LINE1":"1 50810U 22001H   22224.80733853  .00002182  00000-0  15515-3 0  9991","REF_FRAME":"TEME","PERIOD":"95.437","CENTER_NAME":"EARTH","SEMIMAJOR_AXIS":"6917.873","SITE":"AFETR","CLASSIFICATION_TYPE":"U","ECCENTRICITY":"0.00017560","COUNTRY_CODE":"US","RA_OF_ASC_NODE":"256.9821","REV_AT_EPOCH":"3355","EPHEMERIS_TYPE":"0","RCS_SIZE":"LARGE","EPOCH":"2022-08-12T19:22:34.048992","NORAD_CAT_ID":"50810","MEAN_MOTION":"15.08842340","PERIAPSIS":"538.523","MEAN_MOTION_DDOT":"0.0000000000000","DECAY_DATE":null,"OBJECT_ID":"2022-001H","APOAPSIS":"540.953","INCLINATION":"53.2169","BSTAR":"0.00015515000000","TIME_SYSTEM":"UTC","OBJECT_TYPE":"PAYLOAD","ARG_OF_PERICENTER":"48.5774","MEAN_ELEMENT_THEORY":"SGP4","OBJECT_NAME":"STARLINK-3348","MEAN_ANOMALY":"311.5368","FILE":"3535519"},{"FILE":"3535519","MEAN_ANOMALY":"319.2029","OBJECT_NAME":"STARLINK-3347","OBJECT_TYPE":"PAYLOAD","MEAN_ELEMENT_THEORY":"SGP4","ARG_OF_PERICENTER":"40.9095","BSTAR":"0.00020539000000","TIME_SYSTEM":"UTC","INCLINATION":"53.2156","APOAPSIS":"540.954","DECAY_DATE":null,"OBJECT_ID":"2022-001J","MEAN_MOTION_DDOT":"0.0000000000000","PERIAPSIS":"538.515","NORAD_CAT_ID":"50811","MEAN_MOTION":"15.08843514","EPOCH":"2022-08-12T19:11:58.472448","RCS_SIZE":"LARGE","EPHEMERIS_TYPE":"0","COUNTRY_CODE":"US","RA_OF_ASC_NODE":"257.0111","REV_AT_EPOCH":"3355","ECCENTRICITY":"0.00017630","CLASSIFICATION_TYPE":"U","SITE":"AFETR","SEMIMAJOR_AXIS":"6917.870","CENTER_NAME":"EARTH","PERIOD":"95.437","REF_FRAME":"TEME","ELEMENT_SET_NO":"999","TLE_LINE1":"1 50811U 22001J   22224.79998232  .00002983  00000-0  20539-3 0  9995","LAUNCH_DATE":"2022-01-06","MEAN_MOTION_DOT":"0.00002983","GP_ID":"210107475","TLE_LINE2":"2 50811  53.2156 257.0111 0001763  40.9095 319.2029 15.08843514 33551"},{"FILE":"3535350","MEAN_ANOMALY":"311.6598","OBJECT_NAME":"STARLINK-3338","OBJECT_TYPE":"PAYLOAD","MEAN_ELEMENT_THEORY":"SGP4","ARG_OF_PERICENTER":"48.4558","BSTAR":"0.00012263000000","TIME_SYSTEM":"UTC","INCLINATION":"53.2161","APOAPSIS":"541.127","DECAY_DATE":null,"OBJECT_ID":"2022-001K","MEAN_MOTION_DDOT":"0.0000000000000","PERIAPSIS":"538.469","NORAD_CAT_ID":"50812","MEAN_MOTION":"15.08822686","RCS_SIZE":"LARGE","EPOCH":"2022-08-12T11:58:50.829888","EPHEMERIS_TYPE":"0","COUNTRY_CODE":"US","REV_AT_EPOCH":"3350","RA_OF_ASC_NODE":"258.3424","ECCENTRICITY":"0.00019210","SITE":"AFETR","CLASSIFICATION_TYPE":"U","SEMIMAJOR_AXIS":"6917.933","CENTER_NAME":"EARTH","PERIOD":"95.439","REF_FRAME":"TEME","ELEMENT_SET_NO":"999","TLE_LINE1":"1 50812U 22001K   22224.49919942  .00001663  00000-0  12263-3 0  9993","MEAN_MOTION_DOT":"0.00001663","LAUNCH_DATE":"2022-01-06","GP_ID":"210079019","TLE_LINE2":"2 50812  53.2161 258.3424 0001921  48.4558 311.6598 15.08822686 33501"},{"PERIOD":"95.438","SEMIMAJOR_AXIS":"6917.921","CENTER_NAME":"EARTH","TLE_LINE2":"2 50813  53.2168 257.0234 0001714  51.6041 308.5105 15.08826777 33556","GP_ID":"210108477","LAUNCH_DATE":"2022-01-06","MEAN_MOTION_DOT":"0.00001780","REF_FRAME":"TEME","TLE_LINE1":"1 50813U 22001L   22224.79728125  .00001780  00000-0  12996-3 0  9991","ELEMENT_SET_NO":"999","REV_AT_EPOCH":"3355","RA_OF_ASC_NODE":"257.0234","COUNTRY_CODE":"US","MEAN_MOTION":"15.08826777","NORAD_CAT_ID":"50813","RCS_SIZE":"LARGE","EPHEMERIS_TYPE":"0","EPOCH":"2022-08-12T19:08:05.100000","ECCENTRICITY":"0.00017140","SITE":"AFETR","CLASSIFICATION_TYPE":"U","APOAPSIS":"540.972","OBJECT_ID":"2022-001L","DECAY_DATE":null,"INCLINATION":"53.2168","MEAN_MOTION_DDOT":"0.0000000000000","PERIAPSIS":"538.600","MEAN_ANOMALY":"308.5105","OBJECT_NAME":"STARLINK-3349","FILE":"3535519","TIME_SYSTEM":"UTC","BSTAR":"0.00012996000000","ARG_OF_PERICENTER":"51.6041","MEAN_ELEMENT_THEORY":"SGP4","OBJECT_TYPE":"PAYLOAD"}];
